H1 CPF 01  gfz 2022 08 23 00  7351 tandemx   
H2 1003001  6202 36605    2022 08 23 00 59 42 2022 08 28 00 00 42   120 1 1  0 0 0
H9
10 0 59817  25902.000000  0     375478.542  -1051945.832  -6804133.197
10 0 59817  26022.000000  0    -500047.985   -777046.817  -6832988.787
10 0 59817  26142.000000  0   -1361853.254   -473492.073  -6742695.483
10 0 59817  26262.000000  0   -2194559.837   -146910.291  -6534805.506
10 0 59817  26382.000000  0   -2983384.274    196405.848  -6212894.467
10 0 59817  26502.000000  0   -3714393.800    549616.537  -5782506.817
10 0 59817  26622.000000  0   -4374751.503    905466.381  -5251070.960
10 0 59817  26742.000000  0   -4952943.960   1256427.781  -4627782.390
10 0 59817  26862.000000  0   -5438989.034   1594855.805  -3923457.058
10 0 59817  26982.000000  0   -5824617.326   1913150.605  -3150352.701
10 0 59817  27102.000000  0   -6103423.948   2203922.828  -2321962.747
10 0 59817  27222.000000  0   -6270987.025   2460159.587  -1452784.513
10 0 59817  27342.000000  0   -6324948.958   2675387.093   -558065.044
10 0 59817  27462.000000  0   -6265057.652   2843825.048    346470.998
10 0 59817  27582.000000  0   -6093164.562   2960528.719   1244905.547
10 0 59817  27702.000000  0   -5813179.804   3021515.510   2121416.016
10 0 59817  27822.000000  0   -5430985.362   3023871.678   2960562.951
10 0 59817  27942.000000  0   -4954309.830   2965837.135   3747569.826
10 0 59817  28062.000000  0   -4392566.154   2846865.180   4468589.604
10 0 59817  28182.000000  0   -3756658.065   2667656.675   5110950.369
10 0 59817  28302.000000  0   -3058761.342   2430168.737   5663377.520
10 0 59817  28422.000000  0   -2312083.277   2137597.603   6116189.725
10 0 59817  28542.000000  0   -1530605.938   1794335.392   6461463.723
10 0 59817  28662.000000  0    -728819.403   1405902.496   6693166.220
10 0 59817  28782.000000  0      78547.996    978856.902   6807252.123
10 0 59817  28902.000000  0     876799.617    520682.486   6801730.690
10 0 59817  29022.000000  0    1651536.997     39658.065   6676697.807
10 0 59817  29142.000000  0    2388918.326   -455291.351   6434334.903
10 0 59817  29262.000000  0    3075905.548   -954759.594   6078874.265
10 0 59817  29382.000000  0    3700497.099  -1449036.821   5616530.243
10 0 59817  29502.000000  0    4251941.605  -1928298.018   5055395.941
10 0 59817  29622.000000  0    4720927.512  -2382798.042   4405307.214
10 0 59817  29742.000000  0    5099747.761  -2803070.463   3677676.376
10 0 59817  29862.000000  0    5382435.155  -3180126.175   2885294.224
10 0 59817  29982.000000  0    5564862.724  -3505645.845   2042103.772
10 0 59817  30102.000000  0    5644807.469  -3772162.780   1162952.365
10 0 59817  30222.000000  0    5621976.866  -3973231.735    263324.235
10 0 59817  30342.000000  0    5497995.956  -4103577.709   -640939.721
10 0 59817  30462.000000  0    5276355.852  -4159222.596  -1533930.288
10 0 59817  30582.000000  0    4962324.160  -4137584.379  -2399958.568
10 0 59817  30702.000000  0    4562820.016  -4037547.945  -3223838.240
10 0 59817  30822.000000  0    4086258.079  -3859505.899  -3991155.809
10 0 59817  30942.000000  0    3542365.132  -3605368.372  -4688522.808
10 0 59817  31062.000000  0    2941975.275  -3278542.564  -5303805.798
10 0 59817  31182.000000  0    2296808.590  -2883882.929  -5826329.519
10 0 59817  31302.000000  0    1619239.881  -2427615.316  -6247051.295
10 0 59817  31422.000000  0     922060.942  -1917235.677  -6558708.211
10 0 59817  31542.000000  0     218239.658  -1361383.396  -6755932.155
10 0 59817  31662.000000  0    -479317.752   -769694.524  -6835331.755
10 0 59817  31782.000000  0   -1157997.620   -152637.087  -6795543.406
10 0 59817  31902.000000  0   -1805701.580    478669.822  -6637251.872
10 0 59817  32022.000000  0   -2411057.208   1112651.160  -6363179.199
10 0 59817  32142.000000  0   -2963613.256   1737482.714  -5978043.102
10 0 59817  32262.000000  0   -3454018.237   2341306.531  -5488485.105
10 0 59817  32382.000000  0   -3874180.809   2912453.330  -4902968.156
10 0 59817  32502.000000  0   -4217408.429   3439667.577  -4231641.238
10 0 59817  32622.000000  0   -4478519.404   3912330.299  -3486172.943
10 0 59817  32742.000000  0   -4653926.858   4320676.014  -2679557.640
10 0 59817  32862.000000  0   -4741693.682   4655998.365  -1825894.139
10 0 59817  32982.000000  0   -4741555.308   4910839.446   -940141.306
10 0 59817  33102.000000  0   -4654910.244   5079158.637    -37853.382
10 0 59817  33222.000000  0   -4484774.837   5156474.978    865099.752
10 0 59817  33342.000000  0   -4235706.765   5139979.190   1752819.669
10 0 59817  33462.000000  0   -3913695.667   5028611.487   2609670.149
10 0 59817  33582.000000  0   -3526024.147   4823103.060   3420561.082
10 0 59817  33702.000000  0   -3081104.296   4525981.690   4171220.132
10 0 59817  33822.000000  0   -2588294.629   4141541.633   4848447.928
10 0 59817  33942.000000  0   -2057700.547   3675777.649   5440351.667
10 0 59817  34062.000000  0   -1499964.060   3136285.131   5936552.288
10 0 59817  34182.000000  0    -926047.433   2532129.497   6328361.925
10 0 59817  34302.000000  0    -347016.480   1873687.729   6608928.896
10 0 59817  34422.000000  0     226172.029   1172467.210   6773351.628
10 0 59817  34542.000000  0     782877.589    440902.238   6818759.221
10 0 59817  34662.000000  0    1312972.482   -307866.108   6744357.764
10 0 59817  34782.000000  0    1807025.101  -1060225.221   6551444.334
10 0 59817  34902.000000  0    2256467.563  -1802337.909   6243385.854
10 0 59817  35022.000000  0    2653745.286  -2520396.528   5825565.119
10 0 59817  35142.000000  0    2992446.474  -3200881.321   5305292.055
10 0 59817  35262.000000  0    3267407.949  -3830817.619   4691681.489
10 0 59817  35382.000000  0    3474796.669  -4398027.520   3995499.241
10 0 59817  35502.000000  0    3612165.046  -4891371.702   3228976.520
10 0 59817  35622.000000  0    3678477.506  -5300974.500   2405595.856
10 0 59817  35742.000000  0    3674108.447  -5618427.953   1539851.975
10 0 59817  35862.000000  0    3600810.840  -5836969.060    646991.716
10 0 59817  35982.000000  0    3461656.222  -5951624.646   -257260.880
10 0 59817  36102.000000  0    3260949.050  -5959323.340  -1156989.497
10 0 59817  36222.000000  0    3004113.746  -5858967.665  -2036375.832
10 0 59817  36342.000000  0    2697560.450  -5651466.473  -2879984.535
10 0 59817  36462.000000  0    2348532.555  -5339727.127  -3673040.421
10 0 59817  36582.000000  0    1964939.069  -4928606.860  -4401690.004
10 0 59817  36702.000000  0    1555176.945  -4424826.067  -5053240.669
10 0 59817  36822.000000  0    1127949.948  -3836847.763  -5616375.264
10 0 59817  36942.000000  0     692086.490  -3174726.082  -6081339.865
10 0 59817  37062.000000  0     256359.824  -2449927.446  -6440101.688
10 0 59817  37182.000000  0    -170685.092  -1675128.145  -6686476.491
10 0 59817  37302.000000  0    -580894.724   -863992.117  -6816224.862
10 0 59817  37422.000000  0    -966657.720    -30932.401  -6827117.442
10 0 59817  37542.000000  0   -1321042.353    809139.714  -6718967.996
10 0 59817  37662.000000  0   -1637918.170   1641074.482  -6493635.970
10 0 59817  37782.000000  0   -1912059.508   2449749.984  -6154997.772
10 0 59817  37902.000000  0   -2139231.146   3220341.301  -5708888.762
10 0 59817  38022.000000  0   -2316254.077   3938590.041  -5163012.775
10 0 59817  38142.000000  0   -2441050.507   4591069.022  -4526821.054
10 0 59817  38262.000000  0   -2512667.302   5165438.065  -3811358.931
10 0 59817  38382.000000  0   -2531275.984   5650683.538  -3029082.150
10 0 59817  38502.000000  0   -2498149.351   6037337.865  -2193647.675
10 0 59817  38622.000000  0   -2415615.638   6317675.646  -1319678.641
10 0 59817  38742.000000  0   -2286990.086   6485876.831   -422506.933
10 0 59817  38862.000000  0   -2116486.193   6538155.868    482097.936
10 0 59817  38982.000000  0   -1909107.903   6472854.087   1378214.589
10 0 59817  39102.000000  0   -1670523.372   6290484.657   2250061.865
10 0 59817  39222.000000  0   -1406925.372   5993732.660   3082285.297
10 0 59817  39342.000000  0   -1124882.966   5587412.614   3860233.809
10 0 59817  39462.000000  0    -831188.311   5078384.979   4570222.620
10 0 59817  39582.000000  0    -532700.477   4475431.124   5199778.093
10 0 59817  39702.000000  0    -236189.950   3789090.749   5737854.283
10 0 59817  39822.000000  0      51809.260   3031470.156   6175023.461
10 0 59817  39942.000000  0     325139.114   2216020.218   6503636.277
10 0 59817  40062.000000  0     578145.689   1357292.731   6717949.389
10 0 59817  40182.000000  0     805793.554    470677.177   6814220.133
10 0 59817  40302.000000  0    1003764.112   -427875.153   6790766.889
10 0 59817  40422.000000  0    1168536.672  -1322137.134   6647997.836
10 0 59817  40542.000000  0    1297451.105  -2195898.625   6388404.627
10 0 59817  40662.000000  0    1388750.954  -3033260.460   6016522.226
10 0 59817  40782.000000  0    1441606.083  -3818926.042   5538854.030
10 0 59817  40902.000000  0    1456114.584  -4538483.376   4963762.485
10 0 59817  41022.000000  0    1433285.213  -5178673.394   4301329.100
10 0 59817  41142.000000  0    1374999.652  -5727643.018   3563183.843
10 0 59817  41262.000000  0    1283955.136  -6175174.767   2762302.197
10 0 59817  41382.000000  0    1163588.243  -6512885.327   1912776.315
10 0 59817  41502.000000  0    1017981.535  -6734391.851   1029564.945
10 0 59817  41622.000000  0     851755.895  -6835440.425    128224.512
10 0 59817  41742.000000  0     669950.004  -6813993.219   -775374.033
10 0 59817  41862.000000  0     477889.833  -6670267.911  -1665335.661
10 0 59817  41982.000000  0     281054.116  -6406730.519  -2526028.861
10 0 59817  42102.000000  0      84938.152  -6028044.942  -3342365.645
10 0 59817  42222.000000  0    -105081.140  -5540980.021  -4100069.624
10 0 59817  42342.000000  0    -283875.561  -4954275.307  -4785925.822
99
